IRIDIUM 166             
1 43570U 18061B   25051.61317659  .00000055  00000+0  12716-4 0  9996
2 43570  86.3915 257.9479 0002259  80.3923 279.7528 14.34218056344374
IRIDIUM 158             
1 43571U 18061C   25051.58146368  .00000160  00000+0  50022-4 0  9999
2 43571  86.3916 257.9710 0002247  91.5379 268.6074 14.34218360344337
IRIDIUM 165             
1 43572U 18061D   25051.60683285  .00000141  00000+0  43424-4 0  9994
2 43572  86.3918 257.9975 0001921  83.8537 276.2878 14.34218538344368
IRIDIUM 155             
1 43573U 18061E   25051.56877925  .00000169  00000+0  53448-4 0  9993
2 43573  86.3914 257.9063 0002391  87.7875 272.3594 14.34218409344328
IRIDIUM 154             
1 43574U 18061F   25051.61951885  .00000100  00000+0  28485-4 0  9996
2 43574  86.3917 257.9949 0002040  87.7552 272.3877 14.34218158344389
IRIDIUM 163             
1 43575U 18061G   25051.60049018  .00000096  00000+0  27175-4 0  9991
2 43575  86.3915 257.9334 0002079  92.5594 267.5840 14.34217928344355
IRIDIUM 156             
1 43576U 18061H   25051.57512117  .00000071  00000+0  18170-4 0  9991
2 43576  86.3915 257.9509 0002437  83.8049 276.3424 14.34218056344344
IRIDIUM 164             
1 43577U 18061J   25051.55609237  .00000136  00000+0  41668-4 0  9990
2 43577  86.3915 257.9914 0001902  83.8543 276.2869 14.34218356344389
